start=new Date('2022-04-16T00:00:00.000Z').valueOf();
sats=[{"CLASSIFICATION_TYPE":"U","APOAPSIS":"397.278","INCLINATION":"53.2171","EPOCH":"2022-04-15T22:00:00.999936","ARG_OF_PERICENTER":"55.7549","ECCENTRICITY":"0.00012690","OBJECT_NAME":"STARLINK-3450","PERIOD":"92.487","SITE":"AFETR","SEMIMAJOR_AXIS":"6774.553","REF_FRAME":"TEME","TIME_SYSTEM":"UTC","DECAY_DATE":null,"RCS_SIZE":"LARGE","MEAN_MOTION_DDOT":"0.0000000000000","MEAN_MOTION_DOT":"-0.00715905","RA_OF_ASC_NODE":"236.2341","TLE_LINE2":"2 51734  53.2171 236.2341 0001269  55.7549 250.6933 15.56975572  3682","FILE":"3403567","MEAN_ANOMALY":"250.6933","BSTAR":"-0.01065000000000","TLE_LINE1":"1 51734U 22016W   22105.91667824 -.00715905  00000-0 -10650-1 0  9996","CENTER_NAME":"EARTH","ELEMENT_SET_NO":"999","OBJECT_ID":"2022-016W","NORAD_CAT_ID":"51734","MEAN_MOTION":"15.56975572","OBJECT_TYPE":"PAYLOAD","GP_ID":"201344952","REV_AT_EPOCH":"368","COUNTRY_CODE":"US","MEAN_ELEMENT_THEORY":"SGP4","EPHEMERIS_TYPE":"0","LAUNCH_DATE":"2022-02-21","PERIAPSIS":"395.558"},{"MEAN_MOTION_DDOT":"0.0000000000000","MEAN_MOTION_DOT":"-0.00714971","DECAY_DATE":null,"RCS_SIZE":"MEDIUM","TIME_SYSTEM":"UTC","REF_FRAME":"TEME","SEMIMAJOR_AXIS":"6768.409","SITE":"AFETR","PERIOD":"92.361","OBJECT_NAME":"STARLINK-3517","ECCENTRICITY":"0.00012580","ARG_OF_PERICENTER":"48.0567","EPOCH":"2022-04-15T22:00:00.999936","INCLINATION":"53.2171","APOAPSIS":"391.126","CLASSIFICATION_TYPE":"U","PERIAPSIS":"389.423","LAUNCH_DATE":"2022-02-21","EPHEMERIS_TYPE":"0","MEAN_ELEMENT_THEORY":"SGP4","COUNTRY_CODE":"US","REV_AT_EPOCH":"368","GP_ID":"201344859","OBJECT_TYPE":"PAYLOAD","NORAD_CAT_ID":"51735","MEAN_MOTION":"15.59095899","OBJECT_ID":"2022-016X","ELEMENT_SET_NO":"999","CENTER_NAME":"EARTH","TLE_LINE1":"1 51735U 22016X   22105.91667824 -.00714971  00000-0 -98138-2 0  9997","MEAN_ANOMALY":"332.8533","BSTAR":"-0.00981380000000","FILE":"3403567","TLE_LINE2":"2 51735  53.2171 236.2381 0001258  48.0567 332.8533 15.59095899  3687","RA_OF_ASC_NODE":"236.2381"},{"SITE":"AFETR","OBJECT_NAME":"STARLINK-3447","PERIOD":"92.472","SEMIMAJOR_AXIS":"6773.812","RCS_SIZE":"LARGE","DECAY_DATE":null,"REF_FRAME":"TEME","TIME_SYSTEM":"UTC","MEAN_MOTION_DOT":"-0.00715714","MEAN_MOTION_DDOT":"0.0000000000000","CLASSIFICATION_TYPE":"U","APOAPSIS":"396.548","INCLINATION":"53.2171","EPOCH":"2022-04-15T22:00:00.999936","ECCENTRICITY":"0.00012860","ARG_OF_PERICENTER":"52.9367","TLE_LINE1":"1 51736U 22016Y   22105.91667824 -.00715714  00000-0 -10545-1 0  9999","MEAN_MOTION":"15.57231109","NORAD_CAT_ID":"51736","GP_ID":"201345399","OBJECT_TYPE":"PAYLOAD","ELEMENT_SET_NO":"999","CENTER_NAME":"EARTH","OBJECT_ID":"2022-016Y","REV_AT_EPOCH":"368","MEAN_ELEMENT_THEORY":"SGP4","COUNTRY_CODE":"US","PERIAPSIS":"394.806","LAUNCH_DATE":"2022-02-21","EPHEMERIS_TYPE":"0","RA_OF_ASC_NODE":"236.2336","FILE":"3403567","TLE_LINE2":"2 51736  53.2171 236.2336 0001286  52.9367 264.4771 15.57231109  3689","BSTAR":"-0.01054500000000","MEAN_ANOMALY":"264.4771"},{"ECCENTRICITY":"0.00011520","ARG_OF_PERICENTER":"70.6267","EPOCH":"2022-04-15T22:00:00.999936","INCLINATION":"53.2171","CLASSIFICATION_TYPE":"U","APOAPSIS":"397.570","MEAN_MOTION_DDOT":"0.0000000000000","MEAN_MOTION_DOT":"-0.00715743","TIME_SYSTEM":"UTC","REF_FRAME":"TEME","DECAY_DATE":null,"RCS_SIZE":"LARGE","SEMIMAJOR_AXIS":"6774.924","PERIOD":"92.495","OBJECT_NAME":"STARLINK-3509","SITE":"AFETR","MEAN_ANOMALY":"230.2810","BSTAR":"-0.01069900000000","TLE_LINE2":"2 51737  53.2171 236.2341 0001152  70.6267 230.2810 15.56847642  3683","FILE":"3403567","RA_OF_ASC_NODE":"236.2341","LAUNCH_DATE":"2022-02-21","EPHEMERIS_TYPE":"0","PERIAPSIS":"396.009","MEAN_ELEMENT_THEORY":"SGP4","COUNTRY_CODE":"US","REV_AT_EPOCH":"368","OBJECT_ID":"2022-016Z","CENTER_NAME":"EARTH","ELEMENT_SET_NO":"999","OBJECT_TYPE":"PAYLOAD","GP_ID":"201345121","MEAN_MOTION":"15.56847642","NORAD_CAT_ID":"51737","TLE_LINE1":"1 51737U 22016Z   22105.91667824 -.00715743  00000-0 -10699-1 0  9992"},{"INCLINATION":"53.2171","APOAPSIS":"395.813","CLASSIFICATION_TYPE":"U","ECCENTRICITY":"0.00012950","ARG_OF_PERICENTER":"50.2153","EPOCH":"2022-04-15T22:00:00.999936","SEMIMAJOR_AXIS":"6773.071","SITE":"AFETR","OBJECT_NAME":"STARLINK-3515","PERIOD":"92.457","MEAN_MOTION_DDOT":"0.0000000000000","MEAN_MOTION_DOT":"-0.00715660","DECAY_DATE":null,"RCS_SIZE":"LARGE","REF_FRAME":"TEME","TIME_SYSTEM":"UTC","RA_OF_ASC_NODE":"236.2327","MEAN_ANOMALY":"278.0106","BSTAR":"-0.01044300000000","FILE":"3403567","TLE_LINE2":"2 51738  53.2171 236.2327 0001295  50.2153 278.0106 15.57486748  3689","NORAD_CAT_ID":"51738","MEAN_MOTION":"15.57486748","GP_ID":"201345307","OBJECT_TYPE":"PAYLOAD","CENTER_NAME":"EARTH","ELEMENT_SET_NO":"999","OBJECT_ID":"2022-016AA","TLE_LINE1":"1 51738U 22016AA  22105.91667824 -.00715660  00000-0 -10443-1 0  9998","PERIAPSIS":"394.058","LAUNCH_DATE":"2022-02-21","EPHEMERIS_TYPE":"0","REV_AT_EPOCH":"368","COUNTRY_CODE":"US","MEAN_ELEMENT_THEORY":"SGP4"},{"DECAY_DATE":null,"RCS_SIZE":"LARGE","TIME_SYSTEM":"UTC","REF_FRAME":"TEME","MEAN_MOTION_DOT":"-0.00715916","MEAN_MOTION_DDOT":"0.0000000000000","SITE":"AFETR","PERIOD":"92.479","OBJECT_NAME":"STARLINK-3516","SEMIMAJOR_AXIS":"6774.182","EPOCH":"2022-04-15T22:00:00.999936","ARG_OF_PERICENTER":"50.5603","ECCENTRICITY":"0.00013070","CLASSIFICATION_TYPE":"U","APOAPSIS":"396.933","INCLINATION":"53.2171","MEAN_ELEMENT_THEORY":"SGP4","COUNTRY_CODE":"US","REV_AT_EPOCH":"368","PERIAPSIS":"395.162","LAUNCH_DATE":"2022-02-21","EPHEMERIS_TYPE":"0","TLE_LINE1":"1 51739U 22016AB  22105.91667824 -.00715916  00000-0 -10599-1 0  9995","GP_ID":"201345215","OBJECT_TYPE":"PAYLOAD","MEAN_MOTION":"15.57103399","NORAD_CAT_ID":"51739","OBJECT_ID":"2022-016AB","ELEMENT_SET_NO":"999","CENTER_NAME":"EARTH","FILE":"3403567","TLE_LINE2":"2 51739  53.2171 236.2337 0001307  50.5603 261.3898 15.57103399  3689","BSTAR":"-0.01059900000000","MEAN_ANOMALY":"261.3898","RA_OF_ASC_NODE":"236.2337"},{"SITE":"AFETR","OBJECT_NAME":"STARLINK-3500","PERIOD":"92.442","SEMIMAJOR_AXIS":"6772.342","DECAY_DATE":null,"RCS_SIZE":"LARGE","REF_FRAME":"TEME","TIME_SYSTEM":"UTC","MEAN_MOTION_DDOT":"0.0000000000000","MEAN_MOTION_DOT":"-0.00715369","CLASSIFICATION_TYPE":"U","APOAPSIS":"395.029","INCLINATION":"53.2171","EPOCH":"2022-04-15T22:00:00.999936","ARG_OF_PERICENTER":"56.7411","ECCENTRICITY":"0.00012130","TLE_LINE1":"1 51740U 22016AC  22105.91667824 -.00715369  00000-0 -10340-1 0  9993","NORAD_CAT_ID":"51740","MEAN_MOTION":"15.57738039","GP_ID":"201345046","OBJECT_TYPE":"PAYLOAD","ELEMENT_SET_NO":"999","CENTER_NAME":"EARTH","OBJECT_ID":"2022-016AC","REV_AT_EPOCH":"368","MEAN_ELEMENT_THEORY":"SGP4","COUNTRY_CODE":"US","PERIAPSIS":"393.386","LAUNCH_DATE":"2022-02-21","EPHEMERIS_TYPE":"0","RA_OF_ASC_NODE":"236.2305","FILE":"3403567","TLE_LINE2":"2 51740  53.2171 236.2305 0001213  56.7411 282.6281 15.57738039  3684","BSTAR":"-0.01034000000000","MEAN_ANOMALY":"282.6281"},{"ARG_OF_PERICENTER":"55.6476","ECCENTRICITY":"0.00012250","EPOCH":"2022-04-15T22:00:00.999936","INCLINATION":"53.2171","CLASSIFICATION_TYPE":"U","APOAPSIS":"396.136","MEAN_MOTION_DOT":"-0.00715554","MEAN_MOTION_DDOT":"0.0000000000000","DECAY_DATE":null,"RCS_SIZE":"LARGE","TIME_SYSTEM":"UTC","REF_FRAME":"TEME","SEMIMAJOR_AXIS":"6773.441","SITE":"AFETR","PERIOD":"92.464","OBJECT_NAME":"STARLINK-3520","BSTAR":"-0.01049200000000","MEAN_ANOMALY":"267.1915","FILE":"3403567","TLE_LINE2":"2 51741  53.2171 236.2330 0001225  55.6476 267.1915 15.57358856  3682","RA_OF_ASC_NODE":"236.2330","PERIAPSIS":"394.477","EPHEMERIS_TYPE":"0","LAUNCH_DATE":"2022-02-21","MEAN_ELEMENT_THEORY":"SGP4","COUNTRY_CODE":"US","REV_AT_EPOCH":"368","OBJECT_TYPE":"PAYLOAD","GP_ID":"201344767","MEAN_MOTION":"15.57358856","NORAD_CAT_ID":"51741","OBJECT_ID":"2022-016AD","CENTER_NAME":"EARTH","ELEMENT_SET_NO":"999","TLE_LINE1":"1 51741U 22016AD  22105.91667824 -.00715554  00000-0 -10492-1 0  9998"},{"ECCENTRICITY":"0.00012620","ARG_OF_PERICENTER":"50.8634","EPOCH":"2022-04-15T22:00:00.999936","INCLINATION":"53.2172","CLASSIFICATION_TYPE":"U","APOAPSIS":"394.691","MEAN_MOTION_DOT":"-0.00715434","MEAN_MOTION_DDOT":"0.0000000000000","REF_FRAME":"TEME","TIME_SYSTEM":"UTC","DECAY_DATE":null,"RCS_SIZE":"LARGE","SEMIMAJOR_AXIS":"6771.972","OBJECT_NAME":"STARLINK-3521","PERIOD":"92.434","SITE":"AFETR","BSTAR":"-0.01029100000000","MEAN_ANOMALY":"293.7787","TLE_LINE2":"2 51742  53.2172 236.2298 0001262  50.8634 293.7787 15.57865909  3685","FILE":"3403567","RA_OF_ASC_NODE":"236.2298","EPHEMERIS_TYPE":"0","LAUNCH_DATE":"2022-02-21","PERIAPSIS":"392.982","REV_AT_EPOCH":"368","MEAN_ELEMENT_THEORY":"SGP4","COUNTRY_CODE":"US","ELEMENT_SET_NO":"999","CENTER_NAME":"EARTH","OBJECT_ID":"2022-016AE","NORAD_CAT_ID":"51742","MEAN_MOTION":"15.57865909","OBJECT_TYPE":"PAYLOAD","GP_ID":"201344953","TLE_LINE1":"1 51742U 22016AE  22105.91667824 -.00715434  00000-0 -10291-1 0  9993"},{"TLE_LINE1":"1 51743U 22016AF  22105.91667824 -.00113470  00000-0 -81214-3 0  9991","OBJECT_ID":"2022-016AF","CENTER_NAME":"EARTH","ELEMENT_SET_NO":"999","GP_ID":"201344860","OBJECT_TYPE":"PAYLOAD","NORAD_CAT_ID":"51743","MEAN_MOTION":"15.73280249","COUNTRY_CODE":"US","MEAN_ELEMENT_THEORY":"SGP4","REV_AT_EPOCH":"368","EPHEMERIS_TYPE":"0","LAUNCH_DATE":"2022-02-21","PERIAPSIS":"348.362","RA_OF_ASC_NODE":"235.6935","TLE_LINE2":"2 51743  53.2125 235.6935 0001738  31.6455 228.8506 15.73280249  3685","FILE":"3403567","MEAN_ANOMALY":"228.8506","BSTAR":"-0.00081214000000","PERIOD":"91.529","OBJECT_NAME":"STARLINK-3512","SITE":"AFETR","SEMIMAJOR_AXIS":"6727.666","TIME_SYSTEM":"UTC","REF_FRAME":"TEME","RCS_SIZE":"LARGE","DECAY_DATE":null,"MEAN_MOTION_DOT":"-0.00113470","MEAN_MOTION_DDOT":"0.0000000000000","APOAPSIS":"350.701","CLASSIFICATION_TYPE":"U","INCLINATION":"53.2125","EPOCH":"2022-04-15T22:00:00.999936","ARG_OF_PERICENTER":"31.6455","ECCENTRICITY":"0.00017380"}];
